CCSDS_OMM_VERS = 2.0
CREATION_DATE  = 
ORIGINATOR     = 

OBJECT_NAME    = SL-14 R/B
OBJECT_ID      = 1986-046B
CENTER_NAME    = EARTH
REF_FRAME      = TEME
TIME_SYSTEM    = UTC
MEAN_ELEMENT_THEORY = SGP/SGP4

EPOCH          = 2025-12-28T09:49:23.387808
MEAN_MOTION    = 14.85502831
ECCENTRICITY   = .0024605
INCLINATION    = 82.4819
RA_OF_ASC_NODE = 147.5156
ARG_OF_PERICENTER = 102.9428
MEAN_ANOMALY   = 257.4538

EPHEMERIS_TYPE = 0
CLASSIFICATION_TYPE = U
NORAD_CAT_ID   = 16792
ELEMENT_SET_NO = 999
REV_AT_EPOCH   = 11582
BSTAR          = .84611E-4
MEAN_MOTION_DOT = .759E-5
MEAN_MOTION_DDOT = 0

CCSDS_OMM_VERS = 2.0
CREATION_DATE  = 
ORIGINATOR     = 

OBJECT_NAME    = SL-14 R/B
OBJECT_ID      = 1986-055B
CENTER_NAME    = EARTH
REF_FRAME      = TEME
TIME_SYSTEM    = UTC
MEAN_ELEMENT_THEORY = SGP/SGP4

EPOCH          = 2025-12-28T00:29:06.296928
MEAN_MOTION    = 14.85546145
ECCENTRICITY   = .001823
INCLINATION    = 82.5192
RA_OF_ASC_NODE = 194.0138
ARG_OF_PERICENTER = 205.3820
MEAN_ANOMALY   = 308.4471

EPHEMERIS_TYPE = 0
CLASSIFICATION_TYPE = U
NORAD_CAT_ID   = 16882
ELEMENT_SET_NO = 999
REV_AT_EPOCH   = 10872
BSTAR          = .73032E-4
MEAN_MOTION_DOT = .657E-5
MEAN_MOTION_DDOT = 0

CCSDS_OMM_VERS = 2.0
CREATION_DATE  = 
ORIGINATOR     = 

OBJECT_NAME    = AJISAI (EGS)
OBJECT_ID      = 1986-061A
CENTER_NAME    = EARTH
REF_FRAME      = TEME
TIME_SYSTEM    = UTC
MEAN_ELEMENT_THEORY = SGP/SGP4

EPOCH          = 2025-12-28T11:47:07.259136
MEAN_MOTION    = 12.44514458
ECCENTRICITY   = .0011318
INCLINATION    = 50.0111
RA_OF_ASC_NODE = 312.2834
ARG_OF_PERICENTER = 105.4067
MEAN_ANOMALY   = 359.0647

EPHEMERIS_TYPE = 0
CLASSIFICATION_TYPE = U
NORAD_CAT_ID   = 16908
ELEMENT_SET_NO = 999
REV_AT_EPOCH   = 45913
BSTAR          = .58459E-4
MEAN_MOTION_DOT = -.89E-6
MEAN_MOTION_DDOT = 0

CCSDS_OMM_VERS = 2.0
CREATION_DATE  = 
ORIGINATOR     = 

OBJECT_NAME    = COSMOS 1812
OBJECT_ID      = 1987-003A
CENTER_NAME    = EARTH
REF_FRAME      = TEME
TIME_SYSTEM    = UTC
MEAN_ELEMENT_THEORY = SGP/SGP4

EPOCH          = 2025-12-28T05:05:51.793728
MEAN_MOTION    = 15.78858994
ECCENTRICITY   = .0006074
INCLINATION    = 82.4868
RA_OF_ASC_NODE = 275.2295
ARG_OF_PERICENTER = 65.1708
MEAN_ANOMALY   = 295.0189

EPHEMERIS_TYPE = 0
CLASSIFICATION_TYPE = U
NORAD_CAT_ID   = 17295
ELEMENT_SET_NO = 999
REV_AT_EPOCH   = 13309
BSTAR          = .79111E-3
MEAN_MOTION_DOT = .141076E-2
MEAN_MOTION_DDOT = 0

CCSDS_OMM_VERS = 2.0
CREATION_DATE  = 
ORIGINATOR     = 

OBJECT_NAME    = SL-14 R/B
OBJECT_ID      = 1987-024B
CENTER_NAME    = EARTH
REF_FRAME      = TEME
TIME_SYSTEM    = UTC
MEAN_ELEMENT_THEORY = SGP/SGP4

EPOCH          = 2025-12-28T11:14:44.001312
MEAN_MOTION    = 14.86042010
ECCENTRICITY   = .0019335
INCLINATION    = 82.5282
RA_OF_ASC_NODE = 159.6786
ARG_OF_PERICENTER = 133.5151
MEAN_ANOMALY   = 226.7676

EPHEMERIS_TYPE = 0
CLASSIFICATION_TYPE = U
NORAD_CAT_ID   = 17567
ELEMENT_SET_NO = 999
REV_AT_EPOCH   = 7755
BSTAR          = .883E-4
MEAN_MOTION_DOT = .799E-5
MEAN_MOTION_DDOT = 0

CCSDS_OMM_VERS = 2.0
CREATION_DATE  = 
ORIGINATOR     = 

OBJECT_NAME    = COSMOS 1833
OBJECT_ID      = 1987-027A
CENTER_NAME    = EARTH
REF_FRAME      = TEME
TIME_SYSTEM    = UTC
MEAN_ELEMENT_THEORY = SGP/SGP4

EPOCH          = 2025-12-28T12:05:59.671104
MEAN_MOTION    = 14.13030516
ECCENTRICITY   = .0023278
INCLINATION    = 70.9170
RA_OF_ASC_NODE = 115.6390
ARG_OF_PERICENTER = 309.7818
MEAN_ANOMALY   = 50.1253

EPHEMERIS_TYPE = 0
CLASSIFICATION_TYPE = U
NORAD_CAT_ID   = 17589
ELEMENT_SET_NO = 999
REV_AT_EPOCH   = 26
BSTAR          = .19329E-3
MEAN_MOTION_DOT = .313E-5
MEAN_MOTION_DDOT = 0

CCSDS_OMM_VERS = 2.0
CREATION_DATE  = 
ORIGINATOR     = 

OBJECT_NAME    = SL-16 R/B
OBJECT_ID      = 1987-027B
CENTER_NAME    = EARTH
REF_FRAME      = TEME
TIME_SYSTEM    = UTC
MEAN_ELEMENT_THEORY = SGP/SGP4

EPOCH          = 2025-12-28T11:20:09.535776
MEAN_MOTION    = 14.17156308
ECCENTRICITY   = .0007155
INCLINATION    = 71.0036
RA_OF_ASC_NODE = 66.5676
ARG_OF_PERICENTER = 243.3048
MEAN_ANOMALY   = 116.7343

EPHEMERIS_TYPE = 0
CLASSIFICATION_TYPE = U
NORAD_CAT_ID   = 17590
ELEMENT_SET_NO = 999
REV_AT_EPOCH   = 525
BSTAR          = -.63736E-4
MEAN_MOTION_DOT = -.176E-5
MEAN_MOTION_DDOT = 0

CCSDS_OMM_VERS = 2.0
CREATION_DATE  = 
ORIGINATOR     = 

OBJECT_NAME    = SL-14 R/B
OBJECT_ID      = 1987-038B
CENTER_NAME    = EARTH
REF_FRAME      = TEME
TIME_SYSTEM    = UTC
MEAN_ELEMENT_THEORY = SGP/SGP4

EPOCH          = 2025-12-28T11:51:43.446240
MEAN_MOTION    = 14.85277021
ECCENTRICITY   = .0020395
INCLINATION    = 82.5009
RA_OF_ASC_NODE = 3.8602
ARG_OF_PERICENTER = 43.5735
MEAN_ANOMALY   = 316.7087

EPHEMERIS_TYPE = 0
CLASSIFICATION_TYPE = U
NORAD_CAT_ID   = 17912
ELEMENT_SET_NO = 999
REV_AT_EPOCH   = 6866
BSTAR          = .77901E-4
MEAN_MOTION_DOT = .695E-5
MEAN_MOTION_DDOT = 0

CCSDS_OMM_VERS = 2.0
CREATION_DATE  = 
ORIGINATOR     = 

OBJECT_NAME    = COSMOS 1844
OBJECT_ID      = 1987-041A
CENTER_NAME    = EARTH
REF_FRAME      = TEME
TIME_SYSTEM    = UTC
MEAN_ELEMENT_THEORY = SGP/SGP4

EPOCH          = 2025-12-28T11:21:12.570624
MEAN_MOTION    = 14.14534152
ECCENTRICITY   = .0029338
INCLINATION    = 70.8972
RA_OF_ASC_NODE = 184.3866
ARG_OF_PERICENTER = 132.2030
MEAN_ANOMALY   = 228.1589

EPHEMERIS_TYPE = 0
CLASSIFICATION_TYPE = U
NORAD_CAT_ID   = 17973
ELEMENT_SET_NO = 999
REV_AT_EPOCH   = 99351
BSTAR          = .20904E-3
MEAN_MOTION_DOT = .355E-5
MEAN_MOTION_DDOT = 0

CCSDS_OMM_VERS = 2.0
CREATION_DATE  = 
ORIGINATOR     = 

OBJECT_NAME    = SL-14 R/B
OBJECT_ID      = 1987-055B
CENTER_NAME    = EARTH
REF_FRAME      = TEME
TIME_SYSTEM    = UTC
MEAN_ELEMENT_THEORY = SGP/SGP4

EPOCH          = 2025-12-28T05:08:04.566336
MEAN_MOTION    = 14.85537484
ECCENTRICITY   = .0019258
INCLINATION    = 82.4988
RA_OF_ASC_NODE = 56.4044
ARG_OF_PERICENTER = 248.2936
MEAN_ANOMALY   = 111.6230

EPHEMERIS_TYPE = 0
CLASSIFICATION_TYPE = U
NORAD_CAT_ID   = 18153
ELEMENT_SET_NO = 999
REV_AT_EPOCH   = 5932
BSTAR          = .68921E-4
MEAN_MOTION_DOT = .621E-5
MEAN_MOTION_DDOT = 0

CCSDS_OMM_VERS = 2.0
CREATION_DATE  = 
ORIGINATOR     = 

OBJECT_NAME    = COSMOS 1867
OBJECT_ID      = 1987-060A
CENTER_NAME    = EARTH
REF_FRAME      = TEME
TIME_SYSTEM    = UTC
MEAN_ELEMENT_THEORY = SGP/SGP4

EPOCH          = 2025-12-28T11:04:43.163616
MEAN_MOTION    = 14.31488874
ECCENTRICITY   = .0013699
INCLINATION    = 65.0094
RA_OF_ASC_NODE = 146.1747
ARG_OF_PERICENTER = 272.6394
MEAN_ANOMALY   = 87.3122

EPHEMERIS_TYPE = 0
CLASSIFICATION_TYPE = U
NORAD_CAT_ID   = 18187
ELEMENT_SET_NO = 999
REV_AT_EPOCH   = 974
BSTAR          = .50189E-4
MEAN_MOTION_DOT = .33E-6
MEAN_MOTION_DDOT = 0

CCSDS_OMM_VERS = 2.0
CREATION_DATE  = 
ORIGINATOR     = 

OBJECT_NAME    = SL-14 R/B
OBJECT_ID      = 1988-001B
CENTER_NAME    = EARTH
REF_FRAME      = TEME
TIME_SYSTEM    = UTC
MEAN_ELEMENT_THEORY = SGP/SGP4

EPOCH          = 2025-12-28T11:22:35.856768
MEAN_MOTION    = 14.85440712
ECCENTRICITY   = .0019521
INCLINATION    = 82.5132
RA_OF_ASC_NODE = 262.3494
ARG_OF_PERICENTER = 111.9063
MEAN_ANOMALY   = 248.4231

EPHEMERIS_TYPE = 0
CLASSIFICATION_TYPE = U
NORAD_CAT_ID   = 18749
ELEMENT_SET_NO = 999
REV_AT_EPOCH   = 3145
BSTAR          = .70381E-4
MEAN_MOTION_DOT = .633E-5
MEAN_MOTION_DDOT = 0

